{
  "type": "FeatureCollection",
  "features": [
    {
      "type": "Feature",
      "properties": {
        "norad_id": 34964,
        "name": "COSMOS 2251 DEB",
        "group": "cosmos-2251-debris",
        "lat": -25.461749918295663,
        "lon": -43.008606002767294,
        "alt_km": 1033.6331489891863,
        "timestamp": "2025-12-25T22:42:17.408704+00:00",
        "meta_object_name": "COSMOS 2251 DEB",
        "meta_object_id": "1993-036AET",
        "meta_epoch": "2025-12-18T07:25:04.519776",
        "meta_mean_motion": 14.00628567,
        "meta_eccentricity": 0.02123167,
        "meta_inclination": 73.9712,
        "meta_ra_of_asc_node": 338.1457,
        "meta_arg_of_pericenter": 195.4091,
        "meta_mean_anomaly": 164.0515,
        "meta_ephemeris_type": 0,
        "meta_classification_type": "U",
        "meta_norad_cat_id": 34964,
        "meta_element_set_no": 999,
        "meta_rev_at_epoch": 84556,
        "meta_bstar": 0.00089791859,
        "meta_mean_motion_dot": 1.6e-05,
        "meta_mean_motion_ddot": 0,
        "tle_line1": "1 34964U 93036AET 25352.30908009  .00001600  00000+0  89792-3 0  9997",
        "tle_line2": "2 34964  73.9712 338.1457 0212316 195.4091 164.0515 14.00628567845561"
      },
      "geometry": {
        "type": "Point",
        "coordinates": [
          -43.008606002767294,
          -25.461749918295663
        ]
      }
    },
    {
      "type": "Feature",
      "properties": {
        "norad_id": 34965,
        "name": "COSMOS 2251 DEB",
        "group": "cosmos-2251-debris",
        "lat": 13.134081824639686,
        "lon": -80.0802967171306,
        "alt_km": 721.9124862277176,
        "timestamp": "2025-12-25T22:42:17.408715+00:00",
        "meta_object_name": "COSMOS 2251 DEB",
        "meta_object_id": "1993-036AEU",
        "meta_epoch": "2025-12-23T13:35:23.542944",
        "meta_mean_motion": 14.48733014,
        "meta_eccentricity": 0.00264239,
        "meta_inclination": 74.0518,
        "meta_ra_of_asc_node": 108.1991,
        "meta_arg_of_pericenter": 234.0681,
        "meta_mean_anomaly": 125.8027,
        "meta_ephemeris_type": 0,
        "meta_classification_type": "U",
        "meta_norad_cat_id": 34965,
        "meta_element_set_no": 999,
        "meta_rev_at_epoch": 87270,
        "meta_bstar": 0.00031518339,
        "meta_mean_motion_dot": 1.166e-05,
        "meta_mean_motion_ddot": 0,
        "tle_line1": "1 34965U 93036AEU 25357.56624471  .00001166  00000+0  31518-3 0  9999",
        "tle_line2": "2 34965  74.0518 108.1991 0026423 234.0681 125.8027 14.48733014872708"
      },
      "geometry": {
        "type": "Point",
        "coordinates": [
          -80.0802967171306,
          13.134081824639686
        ]
      }
    },
    {
      "type": "Feature",
      "properties": {
        "norad_id": 34967,
        "name": "COSMOS 2251 DEB",
        "group": "cosmos-2251-debris",
        "lat": -44.471513054971616,
        "lon": 65.59226190358817,
        "alt_km": 773.3570081888465,
        "timestamp": "2025-12-25T22:42:17.408724+00:00",
        "meta_object_name": "COSMOS 2251 DEB",
        "meta_object_id": "1993-036AEW",
        "meta_epoch": "2025-12-24T22:23:05.722368",
        "meta_mean_motion": 14.44316705,
        "meta_eccentricity": 0.0038667,
        "meta_inclination": 73.9924,
        "meta_ra_of_asc_node": 231.1127,
        "meta_arg_of_pericenter": 14.6551,
        "meta_mean_anomaly": 345.5717,
        "meta_ephemeris_type": 0,
        "meta_classification_type": "U",
        "meta_norad_cat_id": 34967,
        "meta_element_set_no": 999,
        "meta_rev_at_epoch": 65133,
        "meta_bstar": 0.00061268,
        "meta_mean_motion_dot": 2.1e-05,
        "meta_mean_motion_ddot": 0,
        "tle_line1": "1 34967U 93036AEW 25358.93270512  .00002100  00000+0  61268-3 0  9990",
        "tle_line2": "2 34967  73.9924 231.1127 0038667  14.6551 345.5717 14.44316705651339"
      },
      "geometry": {
        "type": "Point",
        "coordinates": [
          65.59226190358817,
          -44.471513054971616
        ]
      }
    },
    {
      "type": "Feature",
      "properties": {
        "norad_id": 34968,
        "name": "COSMOS 2251 DEB",
        "group": "cosmos-2251-debris",
        "lat": 72.04995764884616,
        "lon": -76.0349623313305,
        "alt_km": 700.8393583759198,
        "timestamp": "2025-12-25T22:42:17.408734+00:00",
        "meta_object_name": "COSMOS 2251 DEB",
        "meta_object_id": "1993-036AEX",
        "meta_epoch": "2025-12-24T23:18:09.743904",
        "meta_mean_motion": 14.59425432,
        "meta_eccentricity": 0.00872503,
        "meta_inclination": 74.0378,
        "meta_ra_of_asc_node": 223.7537,
        "meta_arg_of_pericenter": 341.0741,
        "meta_mean_anomaly": 18.7186,
        "meta_ephemeris_type": 0,
        "meta_classification_type": "U",
        "meta_norad_cat_id": 34968,
        "meta_element_set_no": 999,
        "meta_rev_at_epoch": 88656,
        "meta_bstar": 0.00013531421,
        "meta_mean_motion_dot": 6.43e-06,
        "meta_mean_motion_ddot": 0,
        "tle_line1": "1 34968U 93036AEX 25358.97094611  .00000643  00000+0  13531-3 0  9999",
        "tle_line2": "2 34968  74.0378 223.7537 0087250 341.0741  18.7186 14.59425432886565"
      },
      "geometry": {
        "type": "Point",
        "coordinates": [
          -76.0349623313305,
          72.04995764884616
        ]
      }
    },
    {
      "type": "Feature",
      "properties": {
        "norad_id": 34969,
        "name": "COSMOS 2251 DEB",
        "group": "cosmos-2251-debris",
        "lat": -36.8051171386125,
        "lon": -13.372456399179116,
        "alt_km": 841.2828337558813,
        "timestamp": "2025-12-25T22:42:17.408744+00:00",
        "meta_object_name": "COSMOS 2251 DEB",
        "meta_object_id": "1993-036AEY",
        "meta_epoch": "2025-12-21T18:18:22.827744",
        "meta_mean_motion": 14.32268431,
        "meta_eccentricity": 0.00731947,
        "meta_inclination": 74.0139,
        "meta_ra_of_asc_node": 6.6546,
        "meta_arg_of_pericenter": 137.5862,
        "meta_mean_anomaly": 223.0979,
        "meta_ephemeris_type": 0,
        "meta_classification_type": "U",
        "meta_norad_cat_id": 34969,
        "meta_element_set_no": 999,
        "meta_rev_at_epoch": 65266,
        "meta_bstar": 0.0001981389,
        "meta_mean_motion_dot": 5.25e-06,
        "meta_mean_motion_ddot": 0,
        "tle_line1": "1 34969U 93036AEY 25355.76276421  .00000525  00000+0  19814-3 0  9994",
        "tle_line2": "2 34969  74.0139   6.6546 0073194 137.5862 223.0979 14.32268431652661"
      },
      "geometry": {
        "type": "Point",
        "coordinates": [
          -13.372456399179116,
          -36.8051171386125
        ]
      }
    },
    {
      "type": "Feature",
      "properties": {
        "norad_id": 34971,
        "name": "COSMOS 2251 DEB",
        "group": "cosmos-2251-debris",
        "lat": -34.917796340685825,
        "lon": -111.67488715104186,
        "alt_km": 758.7581568834985,
        "timestamp": "2025-12-25T22:42:17.408754+00:00",
        "meta_object_name": "COSMOS 2251 DEB",
        "meta_object_id": "1993-036AFA",
        "meta_epoch": "2025-12-25T01:43:01.403328",
        "meta_mean_motion": 14.55651593,
        "meta_eccentricity": 0.00692077,
        "meta_inclination": 73.9784,
        "meta_ra_of_asc_node": 261.5587,
        "meta_arg_of_pericenter": 124.0051,
        "meta_mean_anomaly": 299.0645,
        "meta_ephemeris_type": 0,
        "meta_classification_type": "U",
        "meta_norad_cat_id": 34971,
        "meta_element_set_no": 999,
        "meta_rev_at_epoch": 66352,
        "meta_bstar": 0.00016176532,
        "meta_mean_motion_dot": 6.99e-06,
        "meta_mean_motion_ddot": 0,
        "tle_line1": "1 34971U 93036AFA 25359.07154402  .00000699  00000+0  16177-3 0  9990",
        "tle_line2": "2 34971  73.9784 261.5587 0069207 124.0051 299.0645 14.55651593663526"
      },
      "geometry": {
        "type": "Point",
        "coordinates": [
          -111.67488715104186,
          -34.917796340685825
        ]
      }
    },
    {
      "type": "Feature",
      "properties": {
        "norad_id": 34972,
        "name": "COSMOS 2251 DEB",
        "group": "cosmos-2251-debris",
        "lat": -40.48504579969472,
        "lon": 9.864928859043916,
        "alt_km": 674.105200573772,
        "timestamp": "2025-12-25T22:42:17.408789+00:00",
        "meta_object_name": "COSMOS 2251 DEB",
        "meta_object_id": "1993-036AFB",
        "meta_epoch": "2025-12-25T12:04:31.480032",
        "meta_mean_motion": 14.73082896,
        "meta_eccentricity": 0.0032531,
        "meta_inclination": 73.9876,
        "meta_ra_of_asc_node": 24.92,
        "meta_arg_of_pericenter": 181.5664,
        "meta_mean_anomaly": 308.0432,
        "meta_ephemeris_type": 0,
        "meta_classification_type": "U",
        "meta_norad_cat_id": 34972,
        "meta_element_set_no": 999,
        "meta_rev_at_epoch": 87838,
        "meta_bstar": 0.0013193,
        "meta_mean_motion_dot": 8.539e-05,
        "meta_mean_motion_ddot": 0,
        "tle_line1": "1 34972U 93036AFB 25359.50314213  .00008539  00000+0  13193-2 0  9992",
        "tle_line2": "2 34972  73.9876  24.9200 0032531 181.5664 308.0432 14.73082896878381"
      },
      "geometry": {
        "type": "Point",
        "coordinates": [
          9.864928859043916,
          -40.48504579969472
        ]
      }
    }
  ]
}